{
  "type": "FeatureCollection",
  "features": [
    {
      "type": "Feature",
      "properties": {
        "name": "Lagos State",
        "country": "Nigeria",
        "area_sqkm": 3577
      },
      "geometry": {
        "type": "Polygon",
        "coordinates": [[
          [3.2700, 6.4200],
          [3.2750, 6.4500],
          [3.2900, 6.4800],
          [3.3100, 6.5000],
          [3.3300, 6.5200],
          [3.3500, 6.5400],
          [3.3800, 6.5550],
          [3.4100, 6.5650],
          [3.4400, 6.5700],
          [3.4700, 6.5750],
          [3.5000, 6.5800],
          [3.5300, 6.5900],
          [3.5500, 6.6000],
          [3.5700, 6.6100],
          [3.5850, 6.6200],
          [3.5900, 6.6350],
          [3.5850, 6.6500],
          [3.5700, 6.6650],
          [3.5500, 6.6750],
          [3.5200, 6.6850],
          [3.4900, 6.6900],
          [3.4600, 6.6950],
          [3.4300, 6.7000],
          [3.4000, 6.7050],
          [3.3700, 6.7100],
          [3.3400, 6.7200],
          [3.3100, 6.7300],
          [3.2800, 6.7350],
          [3.2500, 6.7300],
          [3.2200, 6.7200],
          [3.1950, 6.7050],
          [3.1800, 6.6850],
          [3.1700, 6.6600],
          [3.1650, 6.6300],
          [3.1700, 6.6000],
          [3.1850, 6.5700],
          [3.2000, 6.5400],
          [3.2150, 6.5100],
          [3.2300, 6.4800],
          [3.2500, 6.4500],
          [3.2700, 6.4200]
        ]]
      }
    }
  ]
}
