{
  "type": "FeatureCollection",
  "name": "water_points_lagos_state",
  "features": [
    {"type": "Feature", "properties": {"name": "Lagos Island Main Tap", "water_type": "tap", "status": "operational", "source": "sample", "latitude": 6.4541, "longitude": 3.3947}, "geometry": {"type": "Point", "coordinates": [3.3947, 6.4541]}},
    {"type": "Feature", "properties": {"name": "Marina Water Point", "water_type": "tap", "status": "operational", "source": "sample", "latitude": 6.4470, "longitude": 3.3980}, "geometry": {"type": "Point", "coordinates": [3.3980, 6.4470]}},
    {"type": "Feature", "properties": {"name": "Balogun Market Tap", "water_type": "tap", "status": "broken", "source": "sample", "latitude": 6.4580, "longitude": 3.3920}, "geometry": {"type": "Point", "coordinates": [3.3920, 6.4580]}},
    {"type": "Feature", "properties": {"name": "Victoria Island Well", "water_type": "well", "status": "operational", "source": "sample", "latitude": 6.4281, "longitude": 3.4219}, "geometry": {"type": "Point", "coordinates": [3.4219, 6.4281]}},
    {"type": "Feature", "properties": {"name": "Ikoyi Water Tap", "water_type": "tap", "status": "operational", "source": "sample", "latitude": 6.4476, "longitude": 3.4328}, "geometry": {"type": "Point", "coordinates": [3.4328, 6.4476]}},
    {"type": "Feature", "properties": {"name": "Obalende Borehole", "water_type": "borehole", "status": "operational", "source": "sample", "latitude": 6.4430, "longitude": 3.4050}, "geometry": {"type": "Point", "coordinates": [3.4050, 6.4430]}},

    {"type": "Feature", "properties": {"name": "Ikeja Water Corporation Tap", "water_type": "tap", "status": "operational", "source": "sample", "latitude": 6.6053, "longitude": 3.3492}, "geometry": {"type": "Point", "coordinates": [3.3492, 6.6053]}},
    {"type": "Feature", "properties": {"name": "Ogba Borehole", "water_type": "borehole", "status": "operational", "source": "sample", "latitude": 6.6227, "longitude": 3.3342}, "geometry": {"type": "Point", "coordinates": [3.3342, 6.6227]}},
    {"type": "Feature", "properties": {"name": "Ojodu Well", "water_type": "well", "status": "operational", "source": "sample", "latitude": 6.6180, "longitude": 3.3150}, "geometry": {"type": "Point", "coordinates": [3.3150, 6.6180]}},
    {"type": "Feature", "properties": {"name": "Aguda Water Point", "water_type": "tap", "status": "operational", "source": "sample", "latitude": 6.5930, "longitude": 3.3510}, "geometry": {"type": "Point", "coordinates": [3.3510, 6.5930]}},

    {"type": "Feature", "properties": {"name": "Surulere Borehole", "water_type": "borehole", "status": "operational", "source": "sample", "latitude": 6.5269, "longitude": 3.3623}, "geometry": {"type": "Point", "coordinates": [3.3623, 6.5269]}},
    {"type": "Feature", "properties": {"name": "Yaba Water Kiosk", "water_type": "tap", "status": "broken", "source": "sample", "latitude": 6.5158, "longitude": 3.3899}, "geometry": {"type": "Point", "coordinates": [3.3899, 6.5158]}},
    {"type": "Feature", "properties": {"name": "Ebute Metta Well", "water_type": "well", "status": "operational", "source": "sample", "latitude": 6.5040, "longitude": 3.3760}, "geometry": {"type": "Point", "coordinates": [3.3760, 6.5040]}},
    {"type": "Feature", "properties": {"name": "Palmgrove Water Tap", "water_type": "tap", "status": "operational", "source": "sample", "latitude": 6.5350, "longitude": 3.3700}, "geometry": {"type": "Point", "coordinates": [3.3700, 6.5350]}},

    {"type": "Feature", "properties": {"name": "Mushin Spring", "water_type": "spring", "status": "unknown", "source": "sample", "latitude": 6.5355, "longitude": 3.3520}, "geometry": {"type": "Point", "coordinates": [3.3520, 6.5355]}},
    {"type": "Feature", "properties": {"name": "Oshodi Water Point", "water_type": "tap", "status": "operational", "source": "sample", "latitude": 6.5548, "longitude": 3.3553}, "geometry": {"type": "Point", "coordinates": [3.3553, 6.5548]}},
    {"type": "Feature", "properties": {"name": "Isolo Borehole", "water_type": "borehole", "status": "operational", "source": "sample", "latitude": 6.5530, "longitude": 3.3390}, "geometry": {"type": "Point", "coordinates": [3.3390, 6.5530]}},
    {"type": "Feature", "properties": {"name": "Ilasamaja Well", "water_type": "well", "status": "broken", "source": "sample", "latitude": 6.5410, "longitude": 3.3350}, "geometry": {"type": "Point", "coordinates": [3.3350, 6.5410]}},

    {"type": "Feature", "properties": {"name": "Anthony Village Well", "water_type": "well", "status": "operational", "source": "sample", "latitude": 6.5635, "longitude": 3.3778}, "geometry": {"type": "Point", "coordinates": [3.3778, 6.5635]}},
    {"type": "Feature", "properties": {"name": "Maryland Water Tap", "water_type": "tap", "status": "broken", "source": "sample", "latitude": 6.5756, "longitude": 3.3531}, "geometry": {"type": "Point", "coordinates": [3.3531, 6.5756]}},
    {"type": "Feature", "properties": {"name": "Gbagada Borehole", "water_type": "borehole", "status": "operational", "source": "sample", "latitude": 6.5710, "longitude": 3.3927}, "geometry": {"type": "Point", "coordinates": [3.3927, 6.5710]}},
    {"type": "Feature", "properties": {"name": "Oworonsoki Water Point", "water_type": "tap", "status": "operational", "source": "sample", "latitude": 6.5580, "longitude": 3.3850}, "geometry": {"type": "Point", "coordinates": [3.3850, 6.5580]}},

    {"type": "Feature", "properties": {"name": "Agege Community Well", "water_type": "well", "status": "operational", "source": "sample", "latitude": 6.6194, "longitude": 3.3246}, "geometry": {"type": "Point", "coordinates": [3.3246, 6.6194]}},
    {"type": "Feature", "properties": {"name": "Iyana-Ipaja Well", "water_type": "well", "status": "operational", "source": "sample", "latitude": 6.6098, "longitude": 3.2973}, "geometry": {"type": "Point", "coordinates": [3.2973, 6.6098]}},
    {"type": "Feature", "properties": {"name": "Ayobo Water Tap", "water_type": "tap", "status": "operational", "source": "sample", "latitude": 6.6370, "longitude": 3.2850}, "geometry": {"type": "Point", "coordinates": [3.2850, 6.6370]}},
    {"type": "Feature", "properties": {"name": "Ikeja Army Cantonment Tap", "water_type": "tap", "status": "operational", "source": "sample", "latitude": 6.5980, "longitude": 3.3420}, "geometry": {"type": "Point", "coordinates": [3.3420, 6.5980]}},

    {"type": "Feature", "properties": {"name": "Lekki Phase 1 Well", "water_type": "well", "status": "operational", "source": "sample", "latitude": 6.4493, "longitude": 3.4724}, "geometry": {"type": "Point", "coordinates": [3.4724, 6.4493]}},
    {"type": "Feature", "properties": {"name": "Ajah Water Kiosk", "water_type": "tap", "status": "operational", "source": "sample", "latitude": 6.4676, "longitude": 3.5639}, "geometry": {"type": "Point", "coordinates": [3.5639, 6.4676]}},
    {"type": "Feature", "properties": {"name": "Sangotedo Borehole", "water_type": "borehole", "status": "operational", "source": "sample", "latitude": 6.4520, "longitude": 3.5080}, "geometry": {"type": "Point", "coordinates": [3.5080, 6.4520]}},
    {"type": "Feature", "properties": {"name": "Chevron Estate Tap", "water_type": "tap", "status": "operational", "source": "sample", "latitude": 6.4390, "longitude": 3.4650}, "geometry": {"type": "Point", "coordinates": [3.4650, 6.4390]}},
    {"type": "Feature", "properties": {"name": "Ikota Water Point", "water_type": "tap", "status": "unknown", "source": "sample", "latitude": 6.4440, "longitude": 3.4800}, "geometry": {"type": "Point", "coordinates": [3.4800, 6.4440]}},

    {"type": "Feature", "properties": {"name": "Ikorodu Main Well", "water_type": "well", "status": "operational", "source": "sample", "latitude": 6.6190, "longitude": 3.5130}, "geometry": {"type": "Point", "coordinates": [3.5130, 6.6190]}},
    {"type": "Feature", "properties": {"name": "Ikorodu Road Borehole", "water_type": "borehole", "status": "operational", "source": "sample", "latitude": 6.6340, "longitude": 3.5020}, "geometry": {"type": "Point", "coordinates": [3.5020, 6.6340]}},
    {"type": "Feature", "properties": {"name": "Ojodu-Berger Water Tap", "water_type": "tap", "status": "broken", "source": "sample", "latitude": 6.6100, "longitude": 3.3000}, "geometry": {"type": "Point", "coordinates": [3.3000, 6.6100]}},
    {"type": "Feature", "properties": {"name": "Agbowa Well", "water_type": "well", "status": "unknown", "source": "sample", "latitude": 6.6050, "longitude": 3.5550}, "geometry": {"type": "Point", "coordinates": [3.5550, 6.6050]}},

    {"type": "Feature", "properties": {"name": "Badagry Main Tap", "water_type": "tap", "status": "operational", "source": "sample", "latitude": 6.4167, "longitude": 3.1200}, "geometry": {"type": "Point", "coordinates": [3.1200, 6.4167]}},
    {"type": "Feature", "properties": {"name": "Badagry Borehole", "water_type": "borehole", "status": "operational", "source": "sample", "latitude": 6.4250, "longitude": 3.1500}, "geometry": {"type": "Point", "coordinates": [3.1500, 6.4250]}},
    {"type": "Feature", "properties": {"name": "Ojo Water Tap", "water_type": "tap", "status": "operational", "source": "sample", "latitude": 6.4700, "longitude": 3.1850}, "geometry": {"type": "Point", "coordinates": [3.1850, 6.4700]}},
    {"type": "Feature", "properties": {"name": "Iba Well", "water_type": "well", "status": "broken", "source": "sample", "latitude": 6.5100, "longitude": 3.2000}, "geometry": {"type": "Point", "coordinates": [3.2000, 6.5100]}},
    {"type": "Feature", "properties": {"name": "Satellite Town Tap", "water_type": "tap", "status": "operational", "source": "sample", "latitude": 6.4550, "longitude": 3.2200}, "geometry": {"type": "Point", "coordinates": [3.2200, 6.4550]}},

    {"type": "Feature", "properties": {"name": "Epe Water Spring", "water_type": "spring", "status": "operational", "source": "sample", "latitude": 6.5833, "longitude": 3.9833}, "geometry": {"type": "Point", "coordinates": [3.9833, 6.5833]}},
    {"type": "Feature", "properties": {"name": "Epe Borehole", "water_type": "borehole", "status": "operational", "source": "sample", "latitude": 6.5900, "longitude": 3.9700}, "geometry": {"type": "Point", "coordinates": [3.9700, 6.5900]}},
    {"type": "Feature", "properties": {"name": "Ibeju-Lekki Well", "water_type": "well", "status": "unknown", "source": "sample", "latitude": 6.4900, "longitude": 3.7000}, "geometry": {"type": "Point", "coordinates": [3.7000, 6.4900]}},
    {"type": "Feature", "properties": {"name": "Lekki Free Trade Zone Tap", "water_type": "tap", "status": "operational", "source": "sample", "latitude": 6.4350, "longitude": 3.5200}, "geometry": {"type": "Point", "coordinates": [3.5200, 6.4350]}},
    {"type": "Feature", "properties": {"name": "Imota Water Point", "water_type": "tap", "status": "operational", "source": "sample", "latitude": 6.6550, "longitude": 3.5300}, "geometry": {"type": "Point", "coordinates": [3.5300, 6.6550]}},

    {"type": "Feature", "properties": {"name": "Festac Water Point", "water_type": "tap", "status": "operational", "source": "sample", "latitude": 6.4713, "longitude": 3.2773}, "geometry": {"type": "Point", "coordinates": [3.2773, 6.4713]}},
    {"type": "Feature", "properties": {"name": "Apapa Water Tap", "water_type": "tap", "status": "operational", "source": "sample", "latitude": 6.4487, "longitude": 3.3617}, "geometry": {"type": "Point", "coordinates": [3.3617, 6.4487]}},
    {"type": "Feature", "properties": {"name": "Kirikiri Borehole", "water_type": "borehole", "status": "operational", "source": "sample", "latitude": 6.4600, "longitude": 3.3400}, "geometry": {"type": "Point", "coordinates": [3.3400, 6.4600]}},
    {"type": "Feature", "properties": {"name": "Amuwo-Odofin Well", "water_type": "well", "status": "operational", "source": "sample", "latitude": 6.4680, "longitude": 3.2950}, "geometry": {"type": "Point", "coordinates": [3.2950, 6.4680]}},
    {"type": "Feature", "properties": {"name": "Igando Water Tap", "water_type": "tap", "status": "operational", "source": "sample", "latitude": 6.5450, "longitude": 3.2650}, "geometry": {"type": "Point", "coordinates": [3.2650, 6.5450]}},
    {"type": "Feature", "properties": {"name": "Igando Borehole", "water_type": "borehole", "status": "unknown", "source": "sample", "latitude": 6.5530, "longitude": 3.2550}, "geometry": {"type": "Point", "coordinates": [3.2550, 6.5530]}},
    {"type": "Feature", "properties": {"name": "Egbeda Water Tap", "water_type": "tap", "status": "operational", "source": "sample", "latitude": 6.5940, "longitude": 3.3050}, "geometry": {"type": "Point", "coordinates": [3.3050, 6.5940]}},
    {"type": "Feature", "properties": {"name": "Idimu Well", "water_type": "well", "status": "operational", "source": "sample", "latitude": 6.5750, "longitude": 3.2700}, "geometry": {"type": "Point", "coordinates": [3.2700, 6.5750]}},
    {"type": "Feature", "properties": {"name": "Isheri Water Point", "water_type": "tap", "status": "operational", "source": "sample", "latitude": 6.6450, "longitude": 3.3500}, "geometry": {"type": "Point", "coordinates": [3.3500, 6.6450]}},
    {"type": "Feature", "properties": {"name": "Ketu Water Tap", "water_type": "tap", "status": "broken", "source": "sample", "latitude": 6.5950, "longitude": 3.3850}, "geometry": {"type": "Point", "coordinates": [3.3850, 6.5950]}},
    {"type": "Feature", "properties": {"name": "Ojota Well", "water_type": "well", "status": "operational", "source": "sample", "latitude": 6.5830, "longitude": 3.3920}, "geometry": {"type": "Point", "coordinates": [3.3920, 6.5830]}},
    {"type": "Feature", "properties": {"name": "Koshofo Borehole", "water_type": "borehole", "status": "operational", "source": "sample", "latitude": 6.5680, "longitude": 3.3650}, "geometry": {"type": "Point", "coordinates": [3.3650, 6.5680]}},
    {"type": "Feature", "properties": {"name": "Onipanu Water Tap", "water_type": "tap", "status": "operational", "source": "sample", "latitude": 6.5450, "longitude": 3.3730}, "geometry": {"type": "Point", "coordinates": [3.3730, 6.5450]}},
    {"type": "Feature", "properties": {"name": "Oworonsoki Well", "water_type": "well", "status": "operational", "source": "sample", "latitude": 6.5540, "longitude": 3.3810}, "geometry": {"type": "Point", "coordinates": [3.3810, 6.5540]}},
    {"type": "Feature", "properties": {"name": "Ilupeju Water Point", "water_type": "tap", "status": "operational", "source": "sample", "latitude": 6.5380, "longitude": 3.3540}, "geometry": {"type": "Point", "coordinates": [3.3540, 6.5380]}},
    {"type": "Feature", "properties": {"name": "Coker Well", "water_type": "well", "status": "unknown", "source": "sample", "latitude": 6.5220, "longitude": 3.3480}, "geometry": {"type": "Point", "coordinates": [3.3480, 6.5220]}},
    {"type": "Feature", "properties": {"name": "Igbobi Spring", "water_type": "spring", "status": "operational", "source": "sample", "latitude": 6.5100, "longitude": 3.3900}, "geometry": {"type": "Point", "coordinates": [3.3900, 6.5100]}},
    {"type": "Feature", "properties": {"name": "Jibowu Water Tap", "water_type": "tap", "status": "operational", "source": "sample", "latitude": 6.5090, "longitude": 3.3820}, "geometry": {"type": "Point", "coordinates": [3.3820, 6.5090]}},
    {"type": "Feature", "properties": {"name": "Fadeyi Well", "water_type": "well", "status": "broken", "source": "sample", "latitude": 6.5250, "longitude": 3.3770}, "geometry": {"type": "Point", "coordinates": [3.3770, 6.5250]}},
    {"type": "Feature", "properties": {"name": "Olagunju Borehole", "water_type": "borehole", "status": "operational", "source": "sample", "latitude": 6.6300, "longitude": 3.3100}, "geometry": {"type": "Point", "coordinates": [3.3100, 6.6300]}},
    {"type": "Feature", "properties": {"name": "Abule-Egba Water Tap", "water_type": "tap", "status": "operational", "source": "sample", "latitude": 6.6350, "longitude": 3.2950}, "geometry": {"type": "Point", "coordinates": [3.2950, 6.6350]}},
    {"type": "Feature", "properties": {"name": "Orile Water Point", "water_type": "tap", "status": "operational", "source": "sample", "latitude": 6.4490, "longitude": 3.3300}, "geometry": {"type": "Point", "coordinates": [3.3300, 6.4490]}},
    {"type": "Feature", "properties": {"name": "Ijora Borehole", "water_type": "borehole", "status": "operational", "source": "sample", "latitude": 6.4620, "longitude": 3.3750}, "geometry": {"type": "Point", "coordinates": [3.3750, 6.4620]}},
    {"type": "Feature", "properties": {"name": "Tincan Island Well", "water_type": "well", "status": "unknown", "source": "sample", "latitude": 6.4430, "longitude": 3.3100}, "geometry": {"type": "Point", "coordinates": [3.3100, 6.4430]}},
    {"type": "Feature", "properties": {"name": "Mile 12 Water Tap", "water_type": "tap", "status": "operational", "source": "sample", "latitude": 6.5820, "longitude": 3.4050}, "geometry": {"type": "Point", "coordinates": [3.4050, 6.5820]}},
    {"type": "Feature", "properties": {"name": "Ikorodu Creek Well", "water_type": "well", "status": "operational", "source": "sample", "latitude": 6.6400, "longitude": 3.5200}, "geometry": {"type": "Point", "coordinates": [3.5200, 6.6400]}},
    {"type": "Feature", "properties": {"name": "Majidun Water Point", "water_type": "tap", "status": "operational", "source": "sample", "latitude": 6.6550, "longitude": 3.5450}, "geometry": {"type": "Point", "coordinates": [3.5450, 6.6550]}},
    {"type": "Feature", "properties": {"name": "Bayeku Well", "water_type": "well", "status": "operational", "source": "sample", "latitude": 6.6700, "longitude": 3.5600}, "geometry": {"type": "Point", "coordinates": [3.5600, 6.6700]}},
    {"type": "Feature", "properties": {"name": "Oredo Water Tap", "water_type": "tap", "status": "operational", "source": "sample", "latitude": 6.6050, "longitude": 3.4900}, "geometry": {"type": "Point", "coordinates": [3.4900, 6.6050]}},
    {"type": "Feature", "properties": {"name": "Ibeju Water Point", "water_type": "tap", "status": "operational", "source": "sample", "latitude": 6.5200, "longitude": 3.7500}, "geometry": {"type": "Point", "coordinates": [3.7500, 6.5200]}},
    {"type": "Feature", "properties": {"name": "Lakowe Lakes Borehole", "water_type": "borehole", "status": "operational", "source": "sample", "latitude": 6.4800, "longitude": 3.6500}, "geometry": {"type": "Point", "coordinates": [3.6500, 6.4800]}},
    {"type": "Feature", "properties": {"name": "Eleko Junction Well", "water_type": "well", "status": "operational", "source": "sample", "latitude": 6.4600, "longitude": 3.5800}, "geometry": {"type": "Point", "coordinates": [3.5800, 6.4600]}}
  ]
}
