{"type": "FeatureCollection", "features": [{"type": "Feature", "properties": {"adm1_name": "Lagos", "adm1_name1": null, "adm1_name2": null, "adm1_name3": null, "adm1_pcode": "NG025", "adm0_name": "Nigeria", "adm0_name1": null, "adm0_name2": null, "adm0_name3": null, "adm0_pcode": "NG", "valid_on": "2019-04-17", "valid_to": null, "area_sqkm": 3671.4771864, "version": "v01", "lang": "en", "lang1": null, "lang2": null, "lang3": null, "adm1_ref_name": "Lagos", "center_lat": 6.53464338, "center_lon": 3.71156913}, "geometry": {"type": "Polygon", "coordinates": [[[3.323865431000058, 6.673875677000012], [3.31466478700014, 6.675467069999968], [3.311308329000099, 6.677582587000131], [3.302441805000115, 6.680912986000124], [3.298371911000118, 6.682439352000074], [3.296046823000154, 6.683270204999985], [3.290516343000149, 6.685785200000169], [3.288480259999972, 6.686620510000182], [3.287864544, 6.687031433000186], [3.28234700400003, 6.690715383000168], [3.274172866000129, 6.695934704000081], [3.271849974000133, 6.696620752000172], [3.267937722000056, 6.697282196], [3.264598967000154, 6.698241399000096], [3.262429504000124, 6.698352113000169], [3.262002861000099, 6.697911902999977], [3.262496200000157, 6.696402297000134], [3.262535973000183, 6.695919368000034], [3.261134371000026, 6.693116227000019], [3.259861725000064, 6.690934322000089], [3.259441050000135, 6.690226274000111], [3.254357565000078, 6.681670770000096], [3.251984340000092, 6.676463996000052], [3.249513651000029, 6.672148177000111], [3.248302677000027, 6.670033019000073], [3.246590126000171, 6.667577633000121], [3.244319439000151, 6.664321889], [3.241841081000075, 6.659866261000161], [3.241377363000083, 6.654182996000031], [3.240473275000056, 6.64819914900005], [3.24001120000014, 6.645865998000033], [3.239293345000135, 6.642240946000129], [3.238851300000078, 6.640009252000027], [3.239370108000173, 6.633987325000135], [3.239337185000011, 6.630731948000175], [3.241477246000102, 6.628627356000095], [3.241439128000138, 6.62532668800003], [3.241116767, 6.623126012], [3.240591056000142, 6.618102212], [3.24000762300011, 6.61602544800013], [3.237481129000116, 6.614116217000173], [3.235311051000167, 6.609843721000175], [3.23328278800011, 6.605851246000157], [3.229724176, 6.601042213000028], [3.216072574000066, 6.595005580000191], [3.207470873000034, 6.588375166000105], [3.199406865000014, 6.580310894999968], [3.196898010000041, 6.576189628000122], [3.196181066, 6.573322177000136], [3.196377288000122, 6.570620963000067], [3.197435611000174, 6.566333236000162], [3.200840472999971, 6.559164986000155], [3.201557185000127, 6.555401733999986], [3.201736432000132, 6.552176555000074], [3.203928961000088, 6.547192620000089], [3.203924914000027, 6.54459476500017], [3.204818967, 6.542418947000044], [3.20522190600002, 6.539588995000031], [3.205135109000082, 6.536102710000137], [3.204967026000077, 6.533184042000073], [3.203960405000032, 6.529477442000143], [3.200002203000111, 6.527748187000157], [3.197072520000063, 6.524859805000119], [3.194574370000112, 6.523625868000067], [3.191240052000126, 6.522936829000173], [3.189397570999972, 6.52142132299997], [3.186571615000105, 6.519096884000135], [3.184807786000135, 6.516785071000072], [3.18245769300006, 6.513895604000027], [3.17951607100008, 6.509849], [3.177074440000069, 6.508471149000172], [3.174613267000097, 6.507490034000057], [3.171061060000113, 6.508788914000093], [3.168775107000044, 6.508430907000047], [3.166569944000116, 6.507507804000113], [3.163223052000149, 6.50640596300002], [3.159874908000063, 6.505304904000127], [3.157017974000098, 6.504858016000071], [3.15564945, 6.501806247000104], [3.147514559000058, 6.502919236000082], [3.143634062999979, 6.504502853000076], [3.140777119000063, 6.504056968000043], [3.136205906999976, 6.503343087000076], [3.13343, 6.502329814000177], [3.130162941000037, 6.500661745000059], [3.123716111000078, 6.500812960000076], [3.12165927500007, 6.500112408000177], [3.118412007000131, 6.501140965000104], [3.11433198900005, 6.501081898000109], [3.111393925000186, 6.501201958000081], [3.10910890700012, 6.500844998000048], [3.103946204000067, 6.499459311000066], [3.101540839000108, 6.499492355000143], [3.100608909000073, 6.500694573000146], [3.095901619000131, 6.501701958000069], [3.094720844000051, 6.501485364000075], [3.091651971999966, 6.502498208000077], [3.081999969000094, 6.503586091000102], [3.073605827000108, 6.503761193], [3.064279599000145, 6.503920989999983], [3.046273687000109, 6.502695987000152], [3.030138255, 6.503189509000151], [3.024404101000016, 6.504091071000119], [3.023551576000102, 6.5048133680001], [3.00983473000008, 6.507387659000017], [2.99210389700005, 6.508340927000063], [2.985538159000157, 6.510720724000066], [2.96999234000009, 6.511086765000016], [2.955684175000044, 6.51178376200005], [2.948548061000054, 6.511043833000031], [2.940448968000112, 6.512153678000118], [2.934545436000121, 6.512055923000105], [2.92711408700012, 6.510378045000039], [2.923375232000126, 6.510938058000079], [2.921485196000049, 6.512461372000189], [2.912132825000128, 6.514171536000106], [2.905638835000161, 6.512197940000078], [2.901930985000149, 6.510892397000134], [2.898197266000011, 6.511141057000088], [2.886929308000106, 6.5109530900001], [2.888858791000189, 6.50834366600003], [2.889995567000085, 6.506023981], [2.892274856000085, 6.501963203000116], [2.894489051000107, 6.499014274999979], [2.896306986000127, 6.495014715000025], [2.896670586000027, 6.491742698999985], [2.896670582000183, 6.48774336800011], [2.895266543000105, 6.484850801000164], [2.893034696000086, 6.480108271000177], [2.889399057000105, 6.476109021000184], [2.885399822000068, 6.473564244000045], [2.879946236000023, 6.469928225000046], [2.873765468000045, 6.470655467000142], [2.868675471000131, 6.471746511], [2.866494178000039, 6.47138269200002], [2.85958625000012, 6.467747147000011], [2.857807631000128, 6.460039958000152], [2.85589599400015, 6.45780910700006], [2.854747054000143, 6.453577940000173], [2.853846083000064, 6.451702045000104], [2.852550747, 6.449971292000157], [2.842185499000038, 6.443988688000047], [2.833001370000147, 6.443141082000068], [2.83158851200011, 6.444836745000146], [2.82848000600012, 6.446814409000183], [2.823676100000057, 6.451477146000059], [2.818306933000144, 6.454585503000146], [2.813079127000151, 6.455998447000127], [2.806297070000028, 6.458824703000062], [2.799232483000026, 6.460095886000147], [2.794146059000184, 6.459389619999968], [2.789907216000188, 6.457411175000175], [2.78637480600014, 6.455009447], [2.784114127000066, 6.452748821000057], [2.779169079000155, 6.45204248500005], [2.775919200000146, 6.452466567000101], [2.773799895000025, 6.452466422000043], [2.76871324300015, 6.451335868000115], [2.763626806, 6.45175994900012], [2.758681534000118, 6.452042509000023], [2.752605916000107, 6.451194716000145], [2.747943410000175, 6.449358057000154], [2.744410998000092, 6.449075298000082], [2.73960708900006, 6.454444354000088], [2.735445981000055, 6.457930508000061], [2.732699870000147, 6.457930419000149], [2.722883458000069, 6.458657864000031], [2.719611412000063, 6.459384884000144], [2.713794237000059, 6.459021061000101], [2.710158354000043, 6.456112888000121], [2.702610966000123, 6.452376882000067], [2.70254206300018, 6.447737318000065], [2.702536111000029, 6.443684981000047], [2.702857972000118, 6.441420215999983], [2.702691086000186, 6.438499853000053], [2.702441931000067, 6.43614726900006], [2.702274084000123, 6.433227146000149], [2.702677017000156, 6.430397137], [2.702508936000015, 6.427476732000059], [2.702831985000046, 6.425211987000182], [2.702905891000114, 6.420594101000177], [2.702656978, 6.418240946000083], [2.702409027000044, 6.415886953999973], [2.702159892999987, 6.413534089999985], [2.702805994000073, 6.409005172999969], [2.703208930000017, 6.406174289999967], [2.703041075999977, 6.403255036000189], [2.702791935000107, 6.400900745000172], [2.703196046000016, 6.398069881000083], [2.702946901000132, 6.395717015000116], [2.703351023000153, 6.392886150999971], [2.703835007000066, 6.389490020000096], [2.703747028000123, 6.386004051000043], [2.703578954000079, 6.383083938000141], [2.703491918000168, 6.379598281000085], [2.704056981000122, 6.375636031], [2.703980441, 6.372600470000123], [2.713794236000126, 6.373582003000081], [2.735244752000028, 6.37612712400005], [2.755241386000023, 6.380126577000112], [2.771601919000034, 6.382307972000035], [2.789417031000028, 6.383398656000054], [2.812321911000026, 6.387397673000066], [2.835954187000141, 6.388852027000155], [2.850497010000026, 6.391760934000047], [2.878128298000036, 6.392488125000114], [2.901033395000127, 6.39357848700007], [2.923211097000149, 6.393578558000172], [2.951206208000031, 6.395396326000139], [2.970111839000083, 6.396123448000083], [2.994107479999968, 6.395760008000025], [3.005378255000039, 6.395396225000184], [3.023193371000048, 6.394669018000172], [3.042462591000117, 6.395396079000022], [3.047050778000028, 6.39556315700014], [3.062458991000142, 6.396123476000071], [3.068990925000037, 6.396607520000146], [3.07273077100001, 6.399371629000143], [3.076902608000125, 6.396850659999984], [3.095180492000054, 6.397214396999971], [3.113722547000123, 6.398668408000106], [3.129356165000104, 6.398304807000159], [3.150806924000108, 6.398668319000024], [3.164986131999967, 6.399759432000167], [3.180619705000083, 6.400122517000113], [3.200511208000023, 6.400716899000088], [3.202145901000165, 6.400765412000112], [3.204978970000184, 6.400849841000081], [3.235518941000123, 6.400849675000018], [3.266422487000057, 6.400849842000127], [3.312959711000133, 6.400122682000188], [3.338409694000063, 6.398304931000155], [3.370040204000077, 6.394668945000035], [3.382707381000046, 6.392435072000069], [3.395853725000109, 6.391397060000145], [3.399489668000115, 6.39030644800016], [3.406374478000089, 6.390175753000108], [3.405407890000049, 6.393206128000088], [3.405003998000041, 6.396037109000133], [3.402346359000148, 6.40068728], [3.403794055, 6.404528091000088], [3.404695042000014, 6.406404852000037], [3.404863115000182, 6.409325124000077], [3.405291082000133, 6.412123311000073], [3.412941698000054, 6.417210497000156], [3.419122503000153, 6.418664994000153], [3.446753746000127, 6.419392162000122], [3.467477301000145, 6.420119155000123], [3.487837312000124, 6.420119411000144], [3.508924499000102, 6.419392113000185], [3.539828080000063, 6.421573533000014], [3.574730864000117, 6.421209926000074], [3.617995979000113, 6.422300808000045], [3.63080310099997, 6.422573109000155], [3.641991606000147, 6.422664157000042], [3.661624436000125, 6.42339131600005], [3.679075994000073, 6.423027905000083], [3.699799537999979, 6.42593620800011], [3.725612872000113, 6.427390627000136], [3.734702369000161, 6.427754352000079], [3.748518021000166, 6.429935314999966], [3.760515892000171, 6.431389735999971], [3.765969535000124, 6.433571211000071], [3.784147991000168, 6.435388992000128], [3.799054357000045, 6.437570576000155], [3.810325156999966, 6.437934308000024], [3.821232335000047, 6.43793448200006], [3.835411551000163, 6.437934430000041], [3.855044367000119, 6.437570518000143], [3.871768703999976, 6.43684348000005], [3.89031081000013, 6.437207345000047], [3.906671548000077, 6.436843298000042], [3.917578696000135, 6.434661965000089], [3.944482847000131, 6.432844038000042], [3.959666470000116, 6.431384080000043], [3.963388701000156, 6.431026373], [3.986293521000107, 6.427027112000133], [3.997103413000161, 6.425187169000083], [4.00338119900016, 6.424118473000078], [4.022650673000044, 6.420482730000117], [4.035739482000054, 6.417937854000058], [4.039031083, 6.417937827000117], [4.051409757000158, 6.416218151000123], [4.076207177000072, 6.411755031000155], [4.106707542000095, 6.405307770000036], [4.150846923000074, 6.397124266000105], [4.197714353000151, 6.388197508000076], [4.241102759000057, 6.38229992700019], [4.248796488000096, 6.381254208000087], [4.277065705000098, 6.378278580000085], [4.301863198000092, 6.376046672000143], [4.329606604000162, 6.372818903000166], [4.346622405, 6.370839257000114], [4.350837715000125, 6.371037511], [4.350837695000109, 6.377373772000169], [4.350837698000021, 6.38973058400012], [4.350837702000035, 6.415349109000147], [4.350837707000096, 6.421683377000079], [4.350837749000107, 6.427625099000181], [4.350093832000084, 6.42985724], [4.347614242000134, 6.431345019000105], [4.34463830500016, 6.433824603000119], [4.343398617999981, 6.43580824999998], [4.337199247000171, 6.439528069], [4.332735513000159, 6.439527986000087], [4.324056663000079, 6.437792262000187], [4.316617421000046, 6.438040255000033], [4.309226462000026, 6.439470815999982], [4.303938362000167, 6.439470836000169], [4.301939901000083, 6.43879889599998], [4.29872178200003, 6.435182923000013], [4.295577053000159, 6.434611238000059], [4.291146817000083, 6.43661218200009], [4.287573395000152, 6.436040265000088], [4.28400038, 6.436755303000098], [4.281284852000056, 6.438755897000078], [4.278997934000188, 6.437898665000034], [4.276282372000026, 6.439613246000079], [4.275138788999982, 6.441900275000023], [4.272423218000085, 6.442757967000091], [4.268421627000066, 6.442471979000061], [4.265706062000163, 6.442900627000029], [4.263808781000137, 6.443560554000157], [4.259145677000106, 6.442461051000066], [4.254343550000044, 6.441328609000152], [4.253342638000049, 6.439041530000168], [4.253963956000121, 6.436204899000018], [4.253271547000111, 6.43432508900014], [4.249984272000177, 6.433753403000082], [4.245267316000138, 6.434468201000072], [4.243409575000157, 6.436183494000147], [4.236883159000172, 6.438172931000167], [4.237406736000082, 6.441900222000072], [4.235691493000161, 6.444758762], [4.233404685000153, 6.445473654000182], [4.230688985000143, 6.445473619000097], [4.227973428999974, 6.444758834000027], [4.225829613999963, 6.445616283000163], [4.2237926090001, 6.448614995000128], [4.221828004000031, 6.450475729000061], [4.219969700999968, 6.455478139000093], [4.218754712000077, 6.459766041000137], [4.217325681000091, 6.463053265000156], [4.215181864000044, 6.463339233], [4.213389431000166, 6.464474753000161], [4.207791753000095, 6.464179123000065], [4.205748566000068, 6.463053314000092], [4.20346159900015, 6.461909892000165], [4.200460493000151, 6.463196252000159], [4.193742806000046, 6.463196295000103], [4.192170607000094, 6.46548311100014], [4.189598101000058, 6.46648364400005], [4.186025192000102, 6.46705530700018], [4.182880323000063, 6.468484319000083], [4.177449655000146, 6.470056441000168], [4.174734128000068, 6.472057958000107], [4.172018566000077, 6.473629885000037], [4.168302066000081, 6.474201743000094], [4.164872162000108, 6.474630386000172], [4.161073195000142, 6.474720079], [4.160954526000182, 6.476819114000079], [4.160012800000061, 6.481776816000092], [4.159441002000165, 6.487207961000138], [4.158382893000123, 6.489767925000024], [4.15701098, 6.492209851000098], [4.155010269000115, 6.496640615000047], [4.156153691000043, 6.498784591000174], [4.160584477000043, 6.50064280600003], [4.165502056000037, 6.502708900000073], [4.167706033000059, 6.503632991000075], [4.173997914999973, 6.508666917000028], [4.174899126000014, 6.51054284900016], [4.17637113800015, 6.512509937], [4.17833427000005, 6.515130952000106], [4.181109885000126, 6.516143886000066], [4.185030037999979, 6.517334076000111], [4.191804906000129, 6.51897204800008], [4.194009760000142, 6.519895155000029], [4.198338942000021, 6.52230773000008], [4.201116097000011, 6.523320253000065], [4.203321027000015, 6.524242731000186], [4.206097071000045, 6.525256054000124], [4.211143908999986, 6.528088491000062], [4.214440333000084, 6.531934308000018], [4.222256721000065, 6.537740708000115], [4.224712860000125, 6.54310037800002], [4.22761636700011, 6.55158662700012], [4.226499601000114, 6.553596635000133], [4.228733101000159, 6.557616090000067], [4.225383271000112, 6.561189173000059], [4.223108233000175, 6.561960685000088], [4.221983437000176, 6.565439835], [4.220036558000118, 6.567516704000184], [4.218013327000108, 6.569675371000187], [4.217413405000059, 6.572402830000158], [4.215333421000082, 6.577714878000052], [4.212653667000041, 6.578608478999968], [4.211760601000037, 6.581735105000064], [4.207517196000026, 6.583968116000165], [4.204390985000089, 6.585531243999981], [4.201487467000049, 6.586871162000023], [4.199585025000033, 6.588473749], [4.198807672999976, 6.585754805000136], [4.194118048, 6.585531365000122], [4.186748514999977, 6.584861178000153], [4.179602185000078, 6.586424926000063], [4.178262167000014, 6.588657932000046], [4.174912405000157, 6.589774740999985], [4.171562692, 6.591560728000104], [4.169150354000067, 6.592352989000176], [4.166342255000188, 6.59337370500009], [4.162237171000186, 6.592182036000167], [4.159720937000145, 6.590592774000129], [4.155615744000045, 6.586752462000163], [4.150955124000063, 6.581296173000169], [4.144799029000069, 6.578747467000142], [4.141882782000096, 6.577807297000163], [4.139138439000135, 6.576644137000187], [4.133595717, 6.574148053000044], [4.131805721000035, 6.573222749000081], [4.130525459000182, 6.572078983000097], [4.12885733700017, 6.570985747000066], [4.12466523900008, 6.568559199000049], [4.122209023000039, 6.566325564000067], [4.119975566999983, 6.564985652000189], [4.116402626000024, 6.56342271], [4.110596169000019, 6.558286054000121], [4.110596191000013, 6.555606404000059], [4.109479390999979, 6.552256484], [4.109479467000028, 6.54843030800015], [4.101680218000126, 6.547468365000043], [4.094421289000024, 6.546886518000122], [4.093583171000148, 6.549289300000169], [4.095366999000134, 6.550732997000182], [4.091971917000023, 6.55528264600008], [4.089619192000157, 6.555962133000094], [4.091167493000114, 6.55850937800011], [4.090641964000042, 6.561825173000102], [4.088607769000077, 6.562638644000174], [4.087188729000047, 6.560910701000125], [4.086427775000175, 6.559418240000184], [4.082932943000174, 6.559184806000019], [4.080267867000146, 6.560401511000066], [4.076335390000111, 6.561621789000128], [4.074369379000018, 6.562299600000188], [4.071724860000188, 6.562435557000128], [4.068231056000116, 6.563551991000168], [4.064938036000115, 6.562396160000162], [4.065440646000127, 6.566706134000071], [4.067058558000099, 6.56955001], [4.066284135000046, 6.571547484000121], [4.066097661000072, 6.57569274500014], [4.06488654900005, 6.580557285000111], [4.063204774000098, 6.582680706000019], [4.062079381000103, 6.586159078000094], [4.061119977000146, 6.588450784000145], [4.059261802000151, 6.594275896], [4.057499415000052, 6.596439745000112], [4.057574356000146, 6.59949345300015], [4.055875357000161, 6.603553282000064], [4.055933434999986, 6.605656073999967], [4.056022636000023, 6.608876141000053], [4.05653184300013, 6.611081663999983], [4.053805902000079, 6.61435415700015], [4.051404970000021, 6.616016498000135], [4.050481298000022, 6.619155887999966], [4.053805861000171, 6.621002682000039], [4.056575741000017, 6.62469612100017], [4.057683966000184, 6.627466735000098], [4.058607612, 6.629867478000051], [4.05786889500007, 6.63393011800008], [4.058792162000032, 6.635962053000071], [4.061562482000056, 6.636700554000186], [4.064332561000015, 6.63614641800018], [4.066693271000133, 6.634893777000173], [4.068395594000037, 6.633191704000126], [4.070426931000156, 6.633191641], [4.074559236000027, 6.635638607000146], [4.076706399000159, 6.637070047000122], [4.078922810000108, 6.637439243000074], [4.081508188000157, 6.637624303000109], [4.084463184000072, 6.639840023000147], [4.085386228000061, 6.642795159000059], [4.087972182000158, 6.644827005000138], [4.089633982000123, 6.648335469000131], [4.090557607999983, 6.650736403000053], [4.091480763999982, 6.652583154000183], [4.095231067000043, 6.65151937700017], [4.092588920000026, 6.656461745000172], [4.093327558000055, 6.658677635], [4.091850295000086, 6.660339906000161], [4.09148072500011, 6.662371669000152], [4.090372532000117, 6.666065132000085], [4.091850294000039, 6.667911961000073], [4.094251210999971, 6.670681975000093], [4.092773395000108, 6.672528763000116], [4.092404302000034, 6.675114726000118], [4.091296251000074, 6.676961370000186], [4.091480698000169, 6.678992647000086], [4.078527024000039, 6.679176339000037], [4.073162055000182, 6.679252569000141], [4.050180392000129, 6.680025123000064], [4.019699532000061, 6.679941469000084], [3.979125550000049, 6.682415390000074], [3.947232830000019, 6.68018119300001], [3.919335189000037, 6.680661209000164], [3.916836717000081, 6.680703983000114], [3.815373653000051, 6.682108532000086], [3.707865025000046, 6.683033982999973], [3.699962121000056, 6.682374854999978], [3.596421501000066, 6.68233955], [3.586022627000148, 6.682468057000051], [3.585492627000178, 6.6829010780001], [3.533058968000091, 6.689738283000111], [3.459111612000129, 6.687321545000032], [3.463662588000091, 6.683956086000023], [3.467966307000097, 6.679330922000133], [3.465392810000083, 6.673741313000107], [3.464262461999965, 6.671816912000111], [3.464591333000101, 6.668950854000116], [3.455652791000034, 6.668368284000053], [3.453413326000089, 6.671054222000066], [3.451019398000085, 6.675666315000058], [3.449935015000165, 6.675432281000042], [3.446922398000027, 6.673210522000147], [3.445831427000087, 6.6734115860001], [3.442594701000132, 6.67162191500006], [3.442200700000171, 6.670141268000066], [3.442171304000055, 6.667244916000016], [3.444489234000173, 6.664900228000022], [3.4494674500001, 6.65784461100003], [3.452574965999986, 6.652251362000072], [3.454292075000069, 6.644476771000086], [3.456408977000081, 6.641914750000126], [3.457663547000152, 6.639433479000104], [3.448281781000162, 6.640582923000125], [3.434690753000041, 6.639135703000136], [3.387346414999968, 6.638612208000097], [3.386295257000086, 6.638892825000084], [3.383424337, 6.639900981000039], [3.380329197000094, 6.640830495000046], [3.370129142000167, 6.641183662], [3.369425862000071, 6.642931548000035], [3.365576726000086, 6.648941710000145], [3.359876135000093, 6.653189206000036], [3.356962429000077, 6.65473374100003], [3.352861799000095, 6.658283432000189], [3.352653629000088, 6.658717711000122], [3.347636259000069, 6.669185373000062], [3.344835586000102, 6.672755034000147], [3.34279747000005, 6.673735040000054], [3.334996210000099, 6.673614469000086], [3.328786269000091, 6.67337394599997], [3.323865431000058, 6.673875677000012]]]}}]}